{
    "links": {
        "self": "http://www.neowsapp.com/rest/v1/neo/3825516?api_key=iIulBulltgU6a56xZRHN4H3l9WmuAYTsLGpBGhQ2"
    },
    "id": "3825516",
    "neo_reference_id": "3825516",
    "name": "(2018 ND)",
    "designation": "2018 ND",
    "nasa_jpl_url": "http://ssd.jpl.nasa.gov/sbdb.cgi?sstr=3825516",
    "absolute_magnitude_h": 20.5,
    "estimated_diameter": {
        "kilometers": {
            "estimated_diameter_min": 0.2111324448,
            "estimated_diameter_max": 0.4721064988
        },
        "meters": {
            "estimated_diameter_min": 211.1324447897,
            "estimated_diameter_max": 472.1064988055
        },
        "miles": {
            "estimated_diameter_min": 0.1311915784,
            "estimated_diameter_max": 0.2933532873
        },
        "feet": {
            "estimated_diameter_min": 692.6917701639,
            "estimated_diameter_max": 1548.9058855411
        }
    },
    "is_potentially_hazardous_asteroid": false,
    "close_approach_data": [
        {
            "close_approach_date": "2018-07-05",
            "close_approach_date_full": "2018-Jul-05 14:55",
            "epoch_date_close_approach": 1530802500000,
            "relative_velocity": {
                "kilometers_per_second": "30.062094427",
                "kilometers_per_hour": "108223.5399371744",
                "miles_per_hour": "67245.8990237404"
            },
            "miss_distance": {
                "astronomical": "0.288695732",
                "lunar": "112.302639748",
                "kilometers": "43188266.58529084",
                "miles": "26835944.456819992"
            },
            "orbiting_body": "Earth"
        }
    ],
    "orbital_data": {
        "orbit_id": "3",
        "orbit_determination_date": "2018-07-07 06:22:26",
        "first_observation_date": "2018-07-02",
        "last_observation_date": "2018-07-07",
        "data_arc_in_days": 5,
        "observations_used": 51,
        "orbit_uncertainty": "9",
        "minimum_orbit_intersection": ".284555",
        "jupiter_tisserand_invariant": "3.090",
        "epoch_osculation": "2458302.5",
        "eccentricity": ".8597143917825457",
        "semi_major_axis": "2.06799504046917",
        "inclination": "26.97745040678762",
        "ascending_node_longitude": "247.8994060689874",
        "orbital_period": "1086.232183568524",
        "perihelion_distance": ".2901099420428965",
        "perihelion_argument": "161.1225819944497",
        "aphelion_distance": "3.845880138895444",
        "perihelion_time": "2458350.662189022260",
        "mean_anomaly": "344.0380460915336",
        "mean_motion": ".3314208559143559",
        "equinox": "J2000",
        "orbit_class": {
            "orbit_class_type": "APO",
            "orbit_class_description": "Near-Earth asteroid orbits which cross the Earth’s orbit similar to that of 1862 Apollo",
            "orbit_class_range": "a (semi-major axis) > 1.0 AU; q (perihelion) < 1.017 AU"
        }
    },
    "is_sentry_object": false
}